{
  "type": "FeatureCollection",
  "features": [
    {
      "type": "Feature",
      "properties": {
        "name": "go_cart_traced",
        "source": "esri_world_imagery_trace",
        "zoom": 17,
        "linestring_file": "go_cart_linestring.geojson",
        "corridor_width_m": 25.0
      },
      "geometry": {
        "type": "Polygon",
        "coordinates": [
          [
            [
              -112.38360285758972,
              40.586027497836774
            ],
            [
              -112.38386034965515,
              40.586141569201935
            ],
            [
              -112.38425731658936,
              40.586198604884515
            ],
            [
              -112.38656401634216,
              40.58613342124728
            ],
            [
              -112.38675713539124,
              40.58605194170074
            ],
            [
              -112.38696098327637,
              40.58583194692507
            ],
            [
              -112.38696098327637,
              40.58562824805871
            ],
            [
              -112.38672494888306,
              40.58535121760046
            ],
            [
              -112.38672494888306,
              40.585253442144605
            ],
            [
              -112.38706827163696,
              40.58500085555032
            ],
            [
              -112.38710045814514,
              40.584756416910686
            ],
            [
              -112.38697171211243,
              40.58461790168156
            ],
            [
              -112.38657474517822,
              40.584528274180364
            ],
            [
              -112.38564133644104,
              40.58457716190829
            ],
            [
              -112.3852550983429,
              40.584520126225705
            ],
            [
              -112.38481521606445,
              40.58460160577225
            ],
            [
              -112.38426804542542,
              40.58453642213502
            ],
            [
              -112.38391399383545,
              40.584585309862945
            ],
            [
              -112.3835813999176,
              40.58482160054792
            ],
            [
              -112.38354921340942,
              40.585139370779444
            ],
            [
              -112.38342046737671,
              40.58526973805392
            ],
            [
              -112.38360285758972,
              40.586027497836774
            ]
          ]
        ]
      }
    }
  ]
}