{
  "type": "FeatureCollection",
  "features": [
    {
      "type": "Feature",
      "properties": {},
      "geometry": {
        "type": "LineString",
        "coordinates": [
          [
            -112.385419,
            40.585934
          ],
          [
            -112.385818,
            40.585952
          ],
          [
            -112.386446,
            40.585924
          ],
          [
            -112.386492,
            40.585912
          ],
          [
            -112.386594,
            40.585859
          ],
          [
            -112.386655,
            40.585812
          ],
          [
            -112.386669,
            40.585769
          ],
          [
            -112.386669,
            40.585671
          ],
          [
            -112.386631,
            40.585612
          ],
          [
            -112.386548,
            40.585571
          ],
          [
            -112.386411,
            40.585535
          ],
          [
            -112.386261,
            40.585514
          ],
          [
            -112.385902,
            40.585508
          ],
          [
            -112.385513,
            40.585539
          ],
          [
            -112.385317,
            40.585571
          ],
          [
            -112.385204,
            40.585577
          ],
          [
            -112.384901,
            40.585565
          ],
          [
            -112.384823,
            40.585492
          ],
          [
            -112.384826,
            40.585417
          ],
          [
            -112.384839,
            40.585384
          ],
          [
            -112.384936,
            40.585323
          ],
          [
            -112.384982,
            40.585307
          ],
          [
            -112.385346,
            40.585243
          ],
          [
            -112.38566,
            40.585207
          ],
          [
            -112.385813,
            40.58517
          ],
          [
            -112.385934,
            40.585156
          ],
          [
            -112.386561,
            40.585003
          ],
          [
            -112.386741,
            40.584926
          ],
          [
            -112.386805,
            40.584887
          ],
          [
            -112.386824,
            40.58485
          ],
          [
            -112.3868,
            40.584795
          ],
          [
            -112.386703,
            40.584759
          ],
          [
            -112.386535,
            40.584742
          ],
          [
            -112.385762,
            40.584752
          ],
          [
            -112.38548,
            40.584738
          ],
          [
            -112.385014,
            40.584744
          ],
          [
            -112.384668,
            40.58473
          ],
          [
            -112.38408,
            40.584765
          ],
          [
            -112.383997,
            40.584791
          ],
          [
            -112.383893,
            40.584858
          ],
          [
            -112.38378,
            40.584985
          ],
          [
            -112.383732,
            40.585097
          ],
          [
            -112.383707,
            40.585237
          ],
          [
            -112.383748,
            40.585679
          ],
          [
            -112.383772,
            40.585808
          ],
          [
            -112.383791,
            40.585854
          ],
          [
            -112.38382,
            40.585881
          ],
          [
            -112.383887,
            40.585909
          ],
          [
            -112.384037,
            40.585948
          ],
          [
            -112.384281,
            40.585973
          ],
          [
            -112.385097,
            40.585971
          ],
          [
            -112.385357,
            40.585956
          ],
          [
            -112.385408,
            40.585942
          ]
        ]
      }
    }
  ]
}