{
  "type": "FeatureCollection",
  "features": [
    {
      "type": "Feature",
      "properties": {
        "name": "traced_track1",
        "source": "esri_world_imagery_trace",
        "zoom": 17,
        "seeds": [
          [
            40.585934,
            -112.385419
          ],
          [
            40.585859,
            -112.386594
          ],
          [
            40.585612,
            -112.386631
          ],
          [
            40.585508,
            -112.385902
          ],
          [
            40.585565,
            -112.384901
          ],
          [
            40.585323,
            -112.384936
          ],
          [
            40.58517,
            -112.385813
          ],
          [
            40.584887,
            -112.386805
          ],
          [
            40.584742,
            -112.386535
          ],
          [
            40.58473,
            -112.384668
          ],
          [
            40.584985,
            -112.38378
          ],
          [
            40.585808,
            -112.383772
          ]
        ]
      },
      "geometry": {
        "type": "Polygon",
        "coordinates": [
          [
            [
              -112.38921403884888,
              40.58617377071353
            ],
            [
              -112.38921403884888,
              40.584861950015096
            ],
            [
              -112.38872051239014,
              40.58504120501736
            ],
            [
              -112.38825917243958,
              40.58501676115342
            ],
            [
              -112.38798022270203,
              40.5851308325185
            ],
            [
              -112.3877763748169,
              40.585049352972014
            ],
            [
              -112.38739013671875,
              40.58458491955704
            ],
            [
              -112.38632798194885,
              40.584454552282665
            ],
            [
              -112.38601684570312,
              40.58465825114888
            ],
            [
              -112.38569498062134,
              40.58467454705818
            ],
            [
              -112.38524436950684,
              40.58451973591985
            ],
            [
              -112.38455772399902,
              40.58469899092212
            ],
            [
              -112.38359212875366,
              40.58468269501282
            ],
            [
              -112.383474111557,
              40.5848130622872
            ],
            [
              -112.38355994224548,
              40.5851471284278
            ],
            [
              -112.38342046737671,
              40.585285643656825
            ],
            [
              -112.38359212875366,
              40.58602710752985
            ],
            [
              -112.3829698562622,
              40.586312285942554
            ],
            [
              -112.38446116447449,
              40.586377469579745
            ],
            [
              -112.3855984210968,
              40.58630413798791
            ],
            [
              -112.38642454147339,
              40.58641006139834
            ],
            [
              -112.38901019096375,
              40.58628784207861
            ],
            [
              -112.38921403884888,
              40.58617377071353
            ]
          ]
        ]
      }
    }
  ]
}