{
  "type": "FeatureCollection",
  "features": [
    {
      "type": "Feature",
      "properties": {
        "name": "Utah Motorsports Campus - Medium Track",
        "osm_strategy": "way_ids",
        "osm_way_ids": [
          343896481,
          343896482,
          343896483,
          343896484,
          343896485,
          343896486,
          343896487
        ],
        "highway": "raceway",
        "sport": "motor"
      },
      "geometry": {
        "type": "Polygon",
        "coordinates": [
          [
            [
              -112.3796734,
              40.5850685
            ],
            [
              -112.3797201,
              40.585079
            ],
            [
              -112.3797525,
              40.5850988
            ],
            [
              -112.3797744,
              40.5851194
            ],
            [
              -112.379788,
              40.5851432
            ],
            [
              -112.3798047,
              40.5851694
            ],
            [
              -112.379836,
              40.5853312
            ],
            [
              -112.3798298,
              40.5853606
            ],
            [
              -112.3798204,
              40.5853828
            ],
            [
              -112.3798026,
              40.5854026
            ],
            [
              -112.3797734,
              40.585424
            ],
            [
              -112.3797243,
              40.5854343
            ],
            [
              -112.3796825,
              40.5854343
            ],
            [
              -112.379648,
              40.5854296
            ],
            [
              -112.3795989,
              40.5854217
            ],
            [
              -112.3790036,
              40.5853051
            ],
            [
              -112.3789733,
              40.5853019
            ],
            [
              -112.3789336,
              40.5853027
            ],
            [
              -112.3788939,
              40.5853162
            ],
            [
              -112.3788615,
              40.5853296
            ],
            [
              -112.3788365,
              40.5853479
            ],
            [
              -112.3787968,
              40.5853796
            ],
            [
              -112.3787811,
              40.5854034
            ],
            [
              -112.3787748,
              40.5854217
            ],
            [
              -112.3787686,
              40.5854447
            ],
            [
              -112.3787696,
              40.5854716
            ],
            [
              -112.3787717,
              40.5854938
            ],
            [
              -112.3787853,
              40.5855153
            ],
            [
              -112.3788041,
              40.5855414
            ],
            [
              -112.3791007,
              40.5857659
            ],
            [
              -112.3791268,
              40.585781
            ],
            [
              -112.3791623,
              40.5857897
            ],
            [
              -112.3791978,
              40.5857905
            ],
            [
              -112.3792334,
              40.5857865
            ],
            [
              -112.3792668,
              40.5857754
            ],
            [
              -112.3794172,
              40.5857048
            ],
            [
              -112.3794464,
              40.5856969
            ],
            [
              -112.3794778,
              40.5856914
            ],
            [
              -112.3795154,
              40.5856898
            ],
            [
              -112.3795488,
              40.5856898
            ],
            [
              -112.3795791,
              40.5856921
            ],
            [
              -112.3796052,
              40.5856953
            ],
            [
              -112.3796313,
              40.5857033
            ],
            [
              -112.3796627,
              40.5857136
            ],
            [
              -112.379694,
              40.5857278
            ],
            [
              -112.3797201,
              40.5857469
            ],
            [
              -112.3797441,
              40.5857667
            ],
            [
              -112.3797619,
              40.5857905
            ],
            [
              -112.3797786,
              40.5858191
            ],
            [
              -112.3797869,
              40.5858508
            ],
            [
              -112.3797901,
              40.5858849
            ],
            [
              -112.3797849,
              40.5859182
            ],
            [
              -112.3797723,
              40.5859499
            ],
            [
              -112.3797567,
              40.5859761
            ],
            [
              -112.3797368,
              40.5860063
            ],
            [
              -112.3797107,
              40.5860324
            ],
            [
              -112.3796846,
              40.5860554
            ],
            [
              -112.3796522,
              40.5860705
            ],
            [
              -112.3796125,
              40.5860848
            ],
            [
              -112.3795645,
              40.5860943
            ],
            [
              -112.3795143,
              40.5860959
            ],
            [
              -112.3790871,
              40.5860983
            ],
            [
              -112.3790182,
              40.5860919
            ],
            [
              -112.3789732,
              40.5860849
            ],
            [
              -112.3787171,
              40.5860196
            ],
            [
              -112.3781194,
              40.5858673
            ],
            [
              -112.3780673,
              40.5858622
            ],
            [
              -112.3780249,
              40.5858628
            ],
            [
              -112.3779879,
              40.5858659
            ],
            [
              -112.3779422,
              40.585874
            ],
            [
              -112.3775252,
              40.5859487
            ],
            [
              -112.3767279,
              40.5860916
            ],
            [
              -112.3766748,
              40.5860894
            ],
            [
              -112.3766304,
              40.5860714
            ],
            [
              -112.3765891,
              40.5860445
            ],
            [
              -112.3764886,
              40.5859548
            ],
            [
              -112.3764561,
              40.5859278
            ],
            [
              -112.3764089,
              40.5859166
            ],
            [
              -112.3763616,
              40.5859099
            ],
            [
              -112.3762907,
              40.5859144
            ],
            [
              -112.3755728,
              40.5859974
            ],
            [
              -112.3755019,
              40.5859907
            ],
            [
              -112.3754635,
              40.5859794
            ],
            [
              -112.375434,
              40.585957
            ],
            [
              -112.3754103,
              40.5859211
            ],
            [
              -112.3754074,
              40.5858785
            ],
            [
              -112.3754221,
              40.5858426
            ],
            [
              -112.3754458,
              40.5858179
            ],
            [
              -112.3754783,
              40.5858022
            ],
            [
              -112.3755344,
              40.585791
            ],
            [
              -112.3768254,
              40.5856407
            ],
            [
              -112.3768993,
              40.5856249
            ],
            [
              -112.3769347,
              40.5855823
            ],
            [
              -112.3769466,
              40.5855464
            ],
            [
              -112.3769466,
              40.5855016
            ],
            [
              -112.3768845,
              40.5854006
            ],
            [
              -112.3768313,
              40.5853714
            ],
            [
              -112.3767811,
              40.5853535
            ],
            [
              -112.3767073,
              40.5853535
            ],
            [
              -112.37666,
              40.5853759
            ],
            [
              -112.3764266,
              40.5854701
            ],
            [
              -112.3763498,
              40.5854634
            ],
            [
              -112.3762877,
              40.5854432
            ],
            [
              -112.3762464,
              40.5854163
            ],
            [
              -112.3760425,
              40.5852862
            ],
            [
              -112.3759864,
              40.5852794
            ],
            [
              -112.3759539,
              40.5852817
            ],
            [
              -112.3759037,
              40.5852907
            ],
            [
              -112.3757146,
              40.5853535
            ],
            [
              -112.3756614,
              40.5853557
            ],
            [
              -112.3755964,
              40.5853512
            ],
            [
              -112.3755492,
              40.5853176
            ],
            [
              -112.3755196,
              40.5852862
            ],
            [
              -112.375499,
              40.5852503
            ],
            [
              -112.3755049,
              40.5852144
            ],
            [
              -112.3756201,
              40.5849227
            ],
            [
              -112.3756496,
              40.5849025
            ],
            [
              -112.3757058,
              40.5848801
            ],
            [
              -112.375756,
              40.5848733
            ],
            [
              -112.3758092,
              40.5848711
            ],
            [
              -112.3758623,
              40.5848778
            ],
            [
              -112.3759066,
              40.5848913
            ],
            [
              -112.3759421,
              40.5849182
            ],
            [
              -112.376078,
              40.585064
            ],
            [
              -112.3761164,
              40.5850798
            ],
            [
              -112.3761548,
              40.5850999
            ],
            [
              -112.3762287,
              40.5851044
            ],
            [
              -112.3769048,
              40.5850974
            ],
            [
              -112.3775727,
              40.5850904
            ],
            [
              -112.3776739,
              40.5850894
            ],
            [
              -112.3780776,
              40.5850852
            ],
            [
              -112.3786547,
              40.5850792
            ],
            [
              -112.3796734,
              40.5850685
            ]
          ]
        ]
      }
    }
  ]
}