{
  "type": "FeatureCollection",
  "features": [
    {
      "type": "Feature",
      "properties": {
        "name": "Utah Motorsports Campus - Kart Track",
        "osm_strategy": "way_ids",
        "osm_way_ids": [
          476963551
        ],
        "highway": "raceway",
        "oneway": "yes",
        "sport": "motor"
      },
      "geometry": {
        "type": "Polygon",
        "coordinates": [
          [
            [
              -112.3865707,
              40.584717
            ],
            [
              -112.3866941,
              40.5847312
            ],
            [
              -112.3867665,
              40.5847658
            ],
            [
              -112.3868148,
              40.5848127
            ],
            [
              -112.3868336,
              40.5848697
            ],
            [
              -112.3868148,
              40.5849329
            ],
            [
              -112.3867504,
              40.5849858
            ],
            [
              -112.3866458,
              40.5850164
            ],
            [
              -112.3851813,
              40.5852649
            ],
            [
              -112.3849587,
              40.5853158
            ],
            [
              -112.3848702,
              40.5853586
            ],
            [
              -112.3848246,
              40.5854197
            ],
            [
              -112.384838,
              40.5854971
            ],
            [
              -112.3848863,
              40.5855521
            ],
            [
              -112.3849534,
              40.5855867
            ],
            [
              -112.3850419,
              40.585603
            ],
            [
              -112.3851867,
              40.585601
            ],
            [
              -112.3853557,
              40.5855949
            ],
            [
              -112.3862167,
              40.5855501
            ],
            [
              -112.3864313,
              40.5855562
            ],
            [
              -112.3865681,
              40.5855766
            ],
            [
              -112.3866405,
              40.5856295
            ],
            [
              -112.3866807,
              40.5856927
            ],
            [
              -112.3866914,
              40.5857741
            ],
            [
              -112.3866539,
              40.5858556
            ],
            [
              -112.3865761,
              40.5859127
            ],
            [
              -112.3864339,
              40.5859453
            ],
            [
              -112.3862623,
              40.5859534
            ],
            [
              -112.3859619,
              40.5859554
            ],
            [
              -112.3854308,
              40.5859615
            ],
            [
              -112.3842131,
              40.5860186
            ],
            [
              -112.3840548,
              40.5859982
            ],
            [
              -112.3839422,
              40.5859473
            ],
            [
              -112.3838644,
              40.5858699
            ],
            [
              -112.3838242,
              40.5857803
            ],
            [
              -112.3837759,
              40.5850144
            ],
            [
              -112.3837759,
              40.5849268
            ],
            [
              -112.3838107,
              40.5848453
            ],
            [
              -112.3839019,
              40.5847781
            ],
            [
              -112.3839931,
              40.5847475
            ],
            [
              -112.384146,
              40.5847312
            ],
            [
              -112.3865707,
              40.584717
            ]
          ]
        ]
      }
    }
  ]
}