{
  "type": "FeatureCollection",
  "features": [
    {
      "type": "Feature",
      "properties": {
        "name": "utah_motorsports_main",
        "source": "esri_world_imagery_trace",
        "zoom": 17,
        "seeds": [
          [
            40.6108,
            -112.5262
          ],
          [
            40.6072,
            -112.5198
          ],
          [
            40.6138,
            -112.5175
          ]
        ]
      },
      "geometry": {
        "type": "Polygon",
        "coordinates": [
          [
            [
              -112.51100778579712,
              40.61461964025761
            ],
            [
              -112.51347541809082,
              40.614383438007614
            ],
            [
              -112.51478433609009,
              40.61303952865423
            ],
            [
              -112.51567482948303,
              40.61315355732663
            ],
            [
              -112.51538515090942,
              40.61930296073153
            ],
            [
              -112.51742362976074,
              40.61909119319706
            ],
            [
              -112.51729488372803,
              40.61856177436088
            ],
            [
              -112.52015948295593,
              40.61668844617131
            ],
            [
              -112.52004146575928,
              40.615963549610996
            ],
            [
              -112.52110362052917,
              40.61583323112824
            ],
            [
              -112.52095341682434,
              40.61638708467994
            ],
            [
              -112.52173662185669,
              40.616435954110976
            ],
            [
              -112.52310991287231,
              40.615759926981696
            ],
            [
              -112.52297043800354,
              40.61452190139554
            ],
            [
              -112.52581357955933,
              40.6136015271111
            ],
            [
              -112.52452611923218,
              40.613568947490414
            ],
            [
              -112.52453684806824,
              40.61277074678355
            ],
            [
              -112.52371072769165,
              40.612526399628386
            ],
            [
              -112.52492308616638,
              40.61170376420601
            ],
            [
              -112.52568483352661,
              40.61198883588703
            ],
            [
              -112.52789497375488,
              40.611524576292226
            ],
            [
              -112.52781987190247,
              40.610376144662965
            ],
            [
              -112.52519130706787,
              40.61053089786124
            ],
            [
              -112.52451539039612,
              40.60974898696472
            ],
            [
              -112.52121090888977,
              40.61028655070608
            ],
            [
              -112.52043843269348,
              40.60979785639575
            ],
            [
              -112.52116799354553,
              40.60922771303371
            ],
            [
              -112.51975178718567,
              40.6091136843613
            ],
            [
              -112.52002000808716,
              40.607582442188956
            ],
            [
              -112.51818537712097,
              40.607004153921736
            ],
            [
              -112.51588940620422,
              40.60784307915446
            ],
            [
              -112.51409769058228,
              40.607044878447596
            ],
            [
              -112.51372218132019,
              40.61039243447331
            ],
            [
              -112.5126600265503,
              40.61028655070608
            ],
            [
              -112.5113832950592,
              40.60932545189577
            ],
            [
              -112.5119411945343,
              40.61010736279229
            ],
            [
              -112.51110434532166,
              40.611508286481886
            ],
            [
              -112.51155495643616,
              40.613177992042154
            ],
            [
              -112.51100778579712,
              40.61461964025761
            ]
          ]
        ]
      }
    }
  ]
}